NORAD_CAT_ID,OBJECT_NAME,OBJECT_TYPE,EPOCH,MEAN_MOTION,ECCENTRICITY,INCLINATION,RA_OF_ASC_NODE,ARG_OF_PERICENTER,MEAN_ANOMALY,BSTAR,MEAN_MOTION_DOT,MEAN_MOTION_DDOT,TLE_LINE0,TLE_LINE1,TLE_LINE2,SEMIMAJOR_AXIS,PERIOD,APOGEE,PERIGEE,DECAYED
52569.0,STARLINK-3927,PAYLOAD,2022-09-28 17:38:03,15.0883899,0.0001835,53.219,6.2958,48.7311,311.3839,-5.912e-05,-1.229e-05,0.0,0 STARLINK-3927,1 52569U 22051AN  22271.73476062 -.00001229  00000-0 -59120-4 0  9993,2 52569  53.2190   6.2958 0001835  48.7311 311.3839 15.08838990 21675,6917.8830000000025,95.438,541.018,538.479,0.0
52569.0,STARLINK-3927,PAYLOAD,2022-09-29 12:42:40,15.08837896,0.000196,53.2193,2.7287,46.0014,314.1139,1.145e-05,-1.06e-06,0.0,0 STARLINK-3927,1 52569U 22051AN  22272.52963715 -.00000106  00000-0  11450-4 0  9993,2 52569  53.2193   2.7287 0001960  46.0014 314.1139 15.08837896 21795,6917.887,95.438,541.1080000000002,538.396,0.0
52569.0,STARLINK-3927,PAYLOAD,2022-09-29 17:28:50,15.0883424,0.0001914,53.2192,1.8358,44.2922,315.8223,-8.7612e-05,-1.682e-05,0.0,0 STARLINK-3927,1 52569U 22051AN  22272.72836284 -.00001682  00000-0 -87612-4 0  9999,2 52569  53.2192   1.8358 0001914  44.2922 315.8223 15.08834240 21826,6917.898,95.438,541.087,538.439,0.0
52569.0,STARLINK-3927,PAYLOAD,2022-09-30 10:58:04,15.08837374,0.0001763,53.2189,358.5651,42.4039,317.7089,4.5494e-05,4.36e-06,0.0,0 STARLINK-3927,1 52569U 22051AN  22273.45699756  .00000436  00000-0  45494-4 0  9997,2 52569  53.2189 358.5651 0001763  42.4039 317.7089 15.08837374 22004,6917.888000000001,95.438,540.9730000000002,538.534,0.0
52569.0,STARLINK-3927,PAYLOAD,2022-09-30 17:19:36,15.08842104,0.0001973,53.2189,357.3756,45.725,314.3904,9.5832e-05,1.237e-05,0.0,0 STARLINK-3927,1 52569U 22051AN  22273.72195344  .00001237  00000-0  95832-4 0  9992,2 52569  53.2189 357.3756 0001973  45.7250 314.3904 15.08842104 21972,6917.874,95.437,541.104,538.374,0.0
52569.0,STARLINK-3927,PAYLOAD,2022-10-01 12:24:13,15.08847853,0.0001844999999999,53.2189,353.8074,45.3603,314.754,0.00011807,1.592e-05,0.0,0 STARLINK-3927,1 52569U 22051AN  22274.51682412  .00001592  00000-0  11807-3 0  9990,2 52569  53.2189 353.8074 0001845  45.3603 314.7540 15.08847853 22092,6917.856,95.437,540.998,538.445,0.0
52569.0,STARLINK-3927,PAYLOAD,2022-10-01 21:56:33,15.0884014,0.0001916,53.2189,352.0239,43.6249,316.4894,2.8003000000000013e-05,1.58e-06,0.0,0 STARLINK-3927,1 52569U 22051AN  22274.91427159  .00000158  00000-0  28003-4 0  9993,2 52569  53.2189 352.0239 0001916  43.6249 316.4894 15.08840140 22220,6917.88,95.438,541.07,538.419,0.0
52569.0,STARLINK-3927,PAYLOAD,2022-10-02 12:15:03,15.08822255,0.0001753,53.2207,349.3521,55.9055,304.2103,-0.00012263,-2.238e-05,0.0,0 STARLINK-3927,1 52569U 22051AN  22275.51045300 -.00002238  00000-0 -12263-3 0  9997,2 52569  53.2207 349.3521 0001753  55.9055 304.2103 15.08822255 22319,6917.935,95.439,541.012,538.587,0.0
52569.0,STARLINK-3927,PAYLOAD,2022-10-02 15:25:49,15.08826522,0.0001885,53.2192,348.7527,37.5008,322.6115,-0.00011074,-2.049e-05,0.0,0 STARLINK-3927,1 52569U 22051AN  22275.64292976 -.00002049  00000-0 -11074-3 0  9993,2 52569  53.2192 348.7527 0001885  37.5008 322.6115 15.08826522 22263,6917.922,95.438,541.091,538.4830000000002,0.0
52569.0,STARLINK-3927,PAYLOAD,2022-10-02 21:47:21,15.08838331,0.0001891,53.2194,347.565,38.9887,321.1241,-8.256700000000001e-05,-1.602e-05,0.0,0 STARLINK-3927,1 52569U 22051AN  22275.90788280 -.00001602  00000-0 -82567-4 0  9990,2 52569  53.2194 347.5650 0001891  38.9887 321.1241 15.08838331 22373,6917.885,95.438,541.059,538.442,0.0
52569.0,STARLINK-3927,PAYLOAD,2022-10-03 12:05:47,15.08855083,0.0001905,53.2193,344.8885,41.4517,318.6620000000001,6.1197e-05,6.86e-06,0.0,0 STARLINK-3927,1 52569U 22051AN  22276.50402599  .00000686  00000-0  61197-4 0  9998,2 52569  53.2193 344.8885 0001905  41.4517 318.6620 15.08855083 22462,6917.834,95.437,541.0169999999998,538.381,0.0
52569.0,STARLINK-3927,PAYLOAD,2022-10-03 13:41:10,15.08857608,0.0001942,53.2189,344.591,40.2214,319.8922,8.3444e-05,1.041e-05,0.0,0 STARLINK-3927,1 52569U 22051AN  22276.57026324  .00001041  00000-0  83444-4 0  9998,2 52569  53.2189 344.5910 0001942  40.2214 319.8922 15.08857608 22402,6917.8269999999975,95.436,541.035,538.3480000000002,0.0
52569.0,STARLINK-3927,PAYLOAD,2022-10-04 11:56:35,15.08839559,0.0001921,53.2185,340.4272,36.6428,323.4695,0.00015391,2.162e-05,0.0,0 STARLINK-3927,1 52569U 22051AN  22277.49762901  .00002162  00000-0  15391-3 0  9998,2 52569  53.2185 340.4272 0001921  36.6428 323.4695 15.08839559 22545,6917.882,95.438,541.076,538.418,0.0
52569.0,STARLINK-3927,PAYLOAD,2022-10-05 11:47:22,15.08844125,0.0001905,53.2179,335.9665,37.7933,322.3193,-0.00010924,-2.027e-05,0.0,0 STARLINK-3927,1 52569U 22051AN  22278.49123467 -.00002027  00000-0 -10924-3 0  9996,2 52569  53.2179 335.9665 0001905  37.7933 322.3193 15.08844125 22768,6917.868,95.437,541.0509999999998,538.415,0.0
52569.0,STARLINK-3927,PAYLOAD,2022-10-06 10:02:46,15.08835876,0.0002106999999999,53.2185,331.8039,40.6671,319.4478,-4.5238e-06,-3.6000000000000007e-06,0.0,0 STARLINK-3927,1 52569U 22051AN  22279.41859721 -.00000360  00000-0 -45238-5 0  9994,2 52569  53.2185 331.8039 0002107  40.6671 319.4478 15.08835876 22836,6917.893,95.438,541.216,538.3,0.0
52569.0,STARLINK-3927,PAYLOAD,2022-10-06 21:10:28,15.08843269,0.000217,53.2187,329.7221,40.9221,319.1933,4.7179e-05,4.63e-06,0.0,0 STARLINK-3927,1 52569U 22051AN  22279.88227098  .00000463  00000-0  47179-4 0  9998,2 52569  53.2187 329.7221 0002170  40.9221 319.1933 15.08843269 22907,6917.87,95.437,541.237,538.234,0.0
52569.0,STARLINK-3927,PAYLOAD,2022-10-07 09:53:33,15.08838079,0.0001931,53.2188,327.3425,44.1587,315.9559,4.2497e-05,3.88e-06,0.0,0 STARLINK-3927,1 52569U 22051AN  22280.41219519  .00000388  00000-0  42497-4 0  9992,2 52569  53.2188 327.3425 0001931  44.1587 315.9559 15.08838079 23051,6917.886,95.438,541.087,538.415,0.0
52569.0,STARLINK-3927,PAYLOAD,2022-10-08 08:08:58,15.08836176,0.0001769,53.2187,323.1798,44.0662,316.0471,-5.909e-05,-1.228e-05,0.0,0 STARLINK-3927,1 52569U 22051AN  22281.33956227 -.00001228  00000-0 -59090-4 0  9991,2 52569  53.2187 323.1798 0001769  44.0662 316.0471 15.08836176 23128,6917.892,95.438,540.981,538.533,0.0
52569.0,STARLINK-3927,PAYLOAD,2022-10-08 19:16:40,15.08834348,0.0002083,53.2182,321.101,40.6805,319.4343,-6.0074e-05,-1.244e-05,0.0,0 STARLINK-3927,1 52569U 22051AN  22281.80324613 -.00001244  00000-0 -60074-4 0  9993,2 52569  53.2182 321.1010 0002083  40.6805 319.4343 15.08834348 23190,6917.898,95.438,541.2040000000002,538.322,0.0
52569.0,STARLINK-3927,PAYLOAD,2022-10-09 09:35:07,15.08846095,0.0002085,53.2175,318.4229,38.2492,321.8648,0.00013146,1.805e-05,0.0,0 STARLINK-3927,1 52569U 22051AN  22282.39939330  .00001805  00000-0  13146-3 0  9994,2 52569  53.2175 318.4229 0002085  38.2492 321.8648 15.08846095 23287,6917.861999999999,95.437,541.169,538.284,0.0
52569.0,STARLINK-3927,PAYLOAD,2022-10-09 19:07:27,15.08829301,0.0002116,53.2181,316.6376,37.9617,322.1524,-1.8945e-05,-5.9e-06,0.0,0 STARLINK-3927,1 52569U 22051AN  22282.79684977 -.00000590  00000-0 -18945-4 0  9997,2 52569  53.2181 316.6376 0002116  37.9617 322.1524 15.08829301 23342,6917.913000000001,95.438,541.242,538.314,0.0
52569.0,STARLINK-3927,PAYLOAD,2022-10-10 06:15:09,15.0883519,0.000202,53.2175,314.5557,39.3728,320.741,8.902299999999999e-05,1.129e-05,0.0,0 STARLINK-3927,1 52569U 22051AN  22283.26052387  .00001129  00000-0  89023-4 0  9996,2 52569  53.2175 314.5557 0002020  39.3728 320.7410 15.08835190 23482,6917.895,95.438,541.158,538.363,0.0
52569.0,STARLINK-3927,PAYLOAD,2022-10-10 11:01:19,15.08832535,0.0002043,53.2181,313.6645,35.7989,324.314,4.6779e-05,4.56e-06,0.0,0 STARLINK-3927,1 52569U 22051AN  22283.45924787  .00000456  00000-0  46779-4 0  9992,2 52569  53.2181 313.6645 0002043  35.7989 324.3140 15.08832535 23447,6917.903,95.438,541.182,538.355,0.0
52569.0,STARLINK-3927,PAYLOAD,2022-10-11 09:16:43,15.08834345,0.000184,53.2185,309.5014,45.3073,314.8069,-8.0856e-05,-1.575e-05,0.0,0 STARLINK-3927,1 52569U 22051AN  22284.38661312 -.00001575  00000-0 -80856-4 0  9996,2 52569  53.2185 309.5014 0001840  45.3073 314.8069 15.08834345 23658,6917.898,95.438,541.036,538.49,0.0
52569.0,STARLINK-3927,PAYLOAD,2022-10-11 14:02:53,15.08831795,0.0002184,53.2186,308.6095,39.6363,320.4789,-0.00019581,-3.403e-05,0.0,0 STARLINK-3927,1 52569U 22051AN  22284.58533998 -.00003403  00000-0 -19581-3 0  9994,2 52569  53.2186 308.6095 0002184  39.6363 320.4789 15.08831795 23612,6917.905,95.438,541.281,538.26,0.0
52569.0,STARLINK-3927,PAYLOAD,2022-10-12 10:42:54,15.0883526,0.0002181,53.2178,304.7443,33.8412,326.2719,-1.8461e-05,-5.82e-06,0.0,0 STARLINK-3927,1 52569U 22051AN  22285.44646036 -.00000582  00000-0 -18461-4 0  9990,2 52569  53.2178 304.7443 0002181  33.8412 326.2719 15.08835260 23747,6917.895,95.438,541.269,538.251,0.0
52569.0,STARLINK-3927,PAYLOAD,2022-10-13 07:22:54,15.088350199999995,0.0002168,53.2176,300.8781,38.4868,321.6278,0.00011928,1.6100000000000002e-05,0.0,0 STARLINK-3927,1 52569U 22051AN  22286.30757887  .00001610  00000-0  11928-3 0  9994,2 52569  53.2176 300.8781 0002168  38.4868 321.6278 15.08835020 23875,6917.896,95.438,541.26,538.261,0.0
52569.0,STARLINK-3927,PAYLOAD,2022-10-13 18:30:36,15.08835399,0.0002134999999999,53.218,298.7959,40.4712,319.6438,0.0001886999999999,2.716e-05,0.0,0 STARLINK-3927,1 52569U 22051AN  22286.77125785  .00002716  00000-0  18870-3 0  9992,2 52569  53.2180 298.7959 0002135  40.4712 319.6438 15.08835399 24018,6917.894,95.438,541.236,538.2819999999998,0.0
52569.0,STARLINK-3927,PAYLOAD,2022-10-14 11:59:51,15.08837746,0.0001986,53.2177,295.5239,40.9696,319.1445,4.3928e-05,4.11e-06,0.0,0 STARLINK-3927,1 52569U 22051AN  22287.49990134  .00000411  00000-0  43928-4 0  9993,2 52569  53.2177 295.5239 0001986  40.9696 319.1445 15.08837746 24054,6917.887,95.438,541.126,538.378,0.0
